ONEWEB-0328             
1 49197U 21083M   24209.43329964  .00000049  00000+0  99604-4 0  9995
2 49197  87.8902  97.5148 0001809  81.7775 278.3560 13.13471810140356
ONEWEB-0331             
1 49198U 21083N   24209.65867191  .00000000  00000+0 -33375-4 0  9990
2 49198  87.9140 112.7283 0002104  86.7982 273.3390 13.18688107139130
ONEWEB-0333             
1 49199U 21083P   24209.65706908 -.00000111  00000+0 -34014-3 0  9993
2 49199  87.8912  97.5007 0001811  73.4024 286.7304 13.13472861140391
ONEWEB-0334             
1 49200U 21083Q   24209.79914804  .00000057  00000+0  10792-3 0  9991
2 49200  87.9177  51.6226 0001882  52.4824 307.6480 13.20777446145797
ONEWEB-0335             
1 49201U 21083R   24209.65231499 -.00000175  00000+0 -51311-3 0  9994
2 49201  87.8916  97.4903 0001727  81.0412 279.0912 13.13470344140401
ONEWEB-0336             
1 49202U 21083S   24209.69833563  .00000047  00000+0  94515-4 0  9999
2 49202  87.8913  97.4770 0001961  74.1137 286.0208 13.13468222140406
ONEWEB-0337             
1 49203U 21083T   24209.70772843 -.00000150  00000+0 -44658-3 0  9994
2 49203  87.8908  97.4735 0001842  80.8088 279.3249 13.13470368140403
ONEWEB-0338             
1 49204U 21083U   24209.80624583  .00000101  00000+0  21578-3 0  9993
2 49204  87.9185  51.6072 0001529  75.9084 284.2219 13.20771275145812
ONEWEB-0339             
1 49205U 21083V   24209.64278524 -.00000544  00000+0 -15241-2 0  9998
2 49205  87.8913  97.4810 0001775  80.1246 280.0084 13.13469864140370
ONEWEB-0340             
1 49206U 21083W   24209.49269884 -.00000008  00000+0 -51842-4 0  9995
2 49206  87.9143 112.7563 0002028  80.6920 279.4441 13.18685625139073
ONEWEB-0341             
1 49207U 21083X   24209.42472033 -.00000001  00000+0 -34220-4 0  9995
2 49207  87.9141 112.7832 0001328  94.9223 265.2060 13.18685846139083
ONEWEB-0342             
1 49208U 21083Y   24209.81255713  .00000135  00000+0  30020-3 0  9992
2 49208  87.9178  51.6126 0001696  81.5549 278.5777 13.20770485145785
ONEWEB-0343             
1 49209U 21083Z   24209.49583847 -.00000042  00000+0 -13970-3 0  9993
2 49209  87.9134 112.7739 0001275  82.2736 277.8541 13.18684004139148
ONEWEB-0344             
1 49210U 21083AA  24209.45710039  .00000272  00000+0  70914-3 0  9990
2 49210  87.8914  97.5363 0001766  94.3776 265.7555 13.13471786140353
ONEWEB-0345             
1 49211U 21083AB  24209.70309000 -.00000092  00000+0 -28760-3 0  9995
2 49211  87.8911  97.4612 0001760  95.3656 264.7674 13.13471985140395
ONEWEB-0346             
1 49212U 21083AC  24209.65709946 -.00000008  00000+0 -54243-4 0  9996
2 49212  87.9139 112.7459 0002308  84.6024 275.5372 13.18685920139101
ONEWEB-0348             
1 49213U 21083AD  24209.80308472  .00000075  00000+0  15333-3 0  9991
2 49213  87.9185  51.5906 0002193 103.6892 256.4485 13.20773240145811
ONEWEB-0350             
1 49214U 21083AE  24209.63646865 -.00002066  00000+0 -56936-2 0  9991
2 49214  87.8912  97.4657 0001232  97.9169 262.2100 13.13456857140410
ONEWEB-0351             
1 49215U 21083AF  24209.94815087  .00000018  00000+0  11315-4 0  9997
2 49215  87.9182  51.5589 0000993  64.0533 296.0702 13.20772358145793
ONEWEB-0352             
1 49216U 21083AG  24209.38885511  .00000150  00000+0  37552-3 0  9992
2 49216  87.8915  97.5473 0001340  68.5194 291.6078 13.13472396140476
ONEWEB-0354             
1 49217U 21083AH  24209.51900112  .00000097  00000+0  20582-3 0  9998
2 49217  87.9183  51.6309 0001642  96.2656 263.8664 13.20772335145774
ONEWEB-0355             
1 49218U 21083AJ  24209.64754446 -.00000327  00000+0 -92982-3 0  9991
2 49218  87.8914  97.4949 0001705  77.9906 282.1414 13.13470772140389
ONEWEB-0357             
1 49219U 21083AK  24209.81887530  .00000098  00000+0  20972-3 0  9995
2 49219  87.9177  51.5881 0001587  86.0927 274.0387 13.20773162145819
ONEWEB-0332             
1 49279U 21090A   24209.59150870  .00000195  00000+0  49170-3 0  9993
2 49279  87.8931  66.9019 0001802  71.8485 288.2840 13.14504527136985
ONEWEB-0347             
1 49280U 21090B   24209.80940357  .00000144  00000+0  32316-3 0  9994
2 49280  87.9186  51.5901 0001980  71.1728 288.9620 13.20770602140041
ONEWEB-0349             
1 49281U 21090C   24209.84097473  .00000076  00000+0  15408-3 0  9998
2 49281  87.9186  51.5842 0001883  83.8553 276.2794 13.20771361138833
ONEWEB-0353             
1 49282U 21090D   24209.35520987  .00000160  00000+0  39744-3 0  9999
2 49282  87.8932  66.9341 0001783  73.9123 286.2202 13.14504674136958
ONEWEB-0356             
1 49283U 21090E   24209.83939005  .00000072  00000+0  14583-3 0  9994
2 49283  87.9185  51.5787 0002758  86.9979 273.1470 13.20772775138837
ONEWEB-0358             
1 49284U 21090F   24209.94513582  .00000065  00000+0  12906-3 0  9994
2 49284  87.9187  51.5444 0002095  92.8857 267.2516 13.20772274139576
ONEWEB-0359             
1 49285U 21090G   24209.94197634  .00000039  00000+0  62823-4 0  9996
2 49285  87.9181  51.5627 0001684 102.4290 257.7031 13.20771389139556
ONEWEB-0360             
1 49286U 21090H   24209.93249624  .00000101  00000+0  21740-3 0  9995
2 49286  87.9183  51.5694 0001801  89.4757 270.6583 13.20773511138864
ONEWEB-0361             
1 49287U 21090J   24209.53477294  .00000035  00000+0  53160-4 0  9996
2 49287  87.9185  51.6434 0001932  83.6318 276.5035 13.20773132139265
ONEWEB-0362             
1 49288U 21090K   24209.39604096  .00000010  00000+0 -78576-5 0  9996
2 49288  87.9125  82.2387 0001460  77.9638 282.1658 13.19724956135936
ONEWEB-0363             
1 49289U 21090L   24209.92934860 -.00000010  00000+0 -56219-4 0  9991
2 49289  87.9184  51.5598 0002152  89.0624 271.0755 13.20769900139325
ONEWEB-0364             
1 49290U 21090M   24209.81571777  .00000098  00000+0  20934-3 0  9993
2 49290  87.9188  51.6080 0001938  84.0801 276.0553 13.20772508140445
ONEWEB-0365             
1 49291U 21090N   24209.63296710 -.00000062  00000+0 -18650-3 0  9990
2 49291  87.9117  82.1689 0001715  77.5547 282.5778 13.19725864135478
ONEWEB-0366             
1 49292U 21090P   24209.88486299  .00000080  00000+0  18196-3 0  9994
2 49292  87.8930  66.8377 0001906  78.1534 281.9810 13.14504874137001
ONEWEB-0367             
1 49293U 21090Q   24209.85200432  .00000335  00000+0  79214-3 0  9996
2 49293  87.9188  51.5698 0001888  78.5694 281.5651 13.20771994138832
ONEWEB-0368             
1 49294U 21090R   24209.52216310  .00000044  00000+0  77380-4 0  9993
2 49294  87.9185  51.6661 0002474  67.4609 292.6786 13.20772022139944
ONEWEB-0369             
1 49295U 21090S   24209.40078045  .00000008  00000+0 -11451-4 0  9990
2 49295  87.9124  82.2211 0001811  74.9942 285.1391 13.19726455135432
ONEWEB-0370             
1 49296U 21090T   24209.93724309  .00000077  00000+0  15695-3 0  9998
2 49296  87.9182  51.5573 0001619  97.0968 263.0349 13.20771002138887
ONEWEB-0371             
1 49297U 21090U   24209.40867629 -.00000068  00000+0 -20103-3 0  9996
2 49297  87.9124  82.2093 0001708  78.0139 282.1186 13.19724191135478
ONEWEB-0372             
1 49298U 21090V   24209.92604951 -.00000067  00000+0 -19644-3 0  9998
2 49298  87.9184  51.5678 0001718  81.8517 278.2811 13.20769410138857
ONEWEB-0373             
1 49299U 21090W   24209.80150608 -.00000173  00000+0 -45774-3 0  9992
2 49299  87.9183  51.6084 0002139  81.5698 278.5677 13.20771270140026
ONEWEB-0374             
1 49300U 21090X   24209.87217516 -.00000152  00000+0 -44499-3 0  9994
2 49300  87.8933  66.8249 0001883  79.9684 280.1658 13.14500484137005
ONEWEB-0375             
1 49301U 21090Y   24209.94040594 -.00000047  00000+0 -14758-3 0  9991
2 49301  87.9180  51.5570 0002518  93.8294 266.3127 13.20773763139544
ONEWEB-0376             
1 49302U 21090Z   24209.63454888 -.00000087  00000+0 -25035-3 0  9997
2 49302  87.9116  82.1700 0001748  70.7018 289.4304 13.19725612135504
ONEWEB-0377             
1 49303U 21090AA  24209.85057603 -.00000017  00000+0 -73377-4 0  9992
2 49303  87.9186  51.5666 0001771  93.1979 266.9357 13.20770748139520
ONEWEB-0378             
1 49304U 21090AB  24209.79692742  .00000020  00000+0  18402-4 0  9995
2 49304  87.9186  51.5808 0001957  86.0326 274.1031 13.20775627138780
ONEWEB-0379             
1 49305U 21090AC  24209.86742241 -.00000155  00000+0 -45276-3 0  9993
2 49305  87.8935  66.8287 0001852  79.1084 281.0254 13.14504070137003
ONEWEB-0380             
1 49306U 21090AD  24209.40394277 -.00000009  00000+0 -55475-4 0  9997
2 49306  87.9125  82.2232 0001752  79.9325 280.2005 13.19724843135441
ONEWEB-0381             
1 49307U 21090AE  24209.84726984  .00000038  00000+0  61313-4 0  9998
2 49307  87.9186  51.5742 0001908  89.9469 270.1883 13.20773598138838
ONEWEB-0382             
1 49308U 21090AF  24209.30435900  .00000080  00000+0  16470-3 0  9995
2 49308  87.9184  51.6793 0002279  85.6761 274.4633 13.20771253138751
ONEWEB-0383             
1 49309U 21090AG  24209.86107621 -.00000115  00000+0 -34576-3 0  9991
2 49309  87.8929  66.8176 0002029  78.6184 281.5173 13.14501174137039
ONEWEB-0384             
1 49310U 21090AH  24209.30120230  .00000073  00000+0  14804-3 0  9996
2 49310  87.9185  51.6919 0002362  84.9072 275.2331 13.20771604138760
ONEWEB-0385             
1 49311U 21090AJ  24209.52373615  .00000065  00000+0  12914-3 0  9999
2 49311  87.9186  51.6487 0002168  89.0635 271.0747 13.20772228138765
ONEWEB-0386             
1 49312U 21090AK  24209.84412291  .00000029  00000+0  38344-4 0  9995
2 49312  87.9178  51.5769 0002143  84.9754 275.1624 13.20771471138823
ONEWEB-0387             
1 49313U 21090AL  24209.52531624  .00000082  00000+0  16866-3 0  9996
2 49313  87.9185  51.7055 0002043  94.5802 265.5564 13.20772110138784
ONEWEB-0388             
1 49314U 21090AM  24209.39919829  .00000013  00000+0 -44556-6 0  9994
2 49314  87.9125  82.2278 0001928  77.5162 282.6186 13.19725358135435
